GAOFEN-14               
1 47231U 20092A   25227.56807639  .00006474  00000+0  25810-3 0  9991
2 47231  97.2631 297.8392 0004798 176.3911 183.7363 15.25520313261235
GECAM-A                 
1 47234U 20094A   25213.49016147  .00002427  00000+0  18399-3 0  9997
2 47234  28.9949 299.1242 0010723 209.1660 150.8339 14.98894693253649
GECAM-B                 
1 47235U 20094B   25213.58938794  .00002932  00000+0  21776-3 0  9993
2 47235  28.9968 292.0283 0010693 219.1633 140.8191 15.00091160253653
SXM-7                   
1 47240U 20096A   25227.16369468 -.00000205  00000+0  00000+0 0  9991
2 47240   0.0142 117.9469 0004113  19.3655 160.2411  1.00269637 17266
IPM 2 & BREEZE-M R/B    
1 47242U 20097A   25227.09798335 -.00000063  00000+0  00000+0 0  9997
2 47242   4.5302  80.5097 0082639 269.7491  89.4636  0.95297277 16348
CMS-01                  
1 47256U 20099A   25227.55393052 -.00000166  00000+0  00000+0 0  9996
2 47256   0.0441  97.6659 0005525 161.7775 347.1676  1.00269311 17137
ONEWEB-0102             
1 47258U 20100A   25227.49999074  .00000437  00000+0  11798-2 0  9999
2 47258  87.8851  51.4417 0001602  88.7684 271.3628 13.12442057224632
ONEWEB-0109             
1 47259U 20100B   25227.50810532  .00000427  00000+0  11504-2 0  9997
2 47259  87.8854  51.4100 0001627  87.2570 272.8744 13.12441976224465
ONEWEB-0110             
1 47260U 20100C   25227.45780163 -.00000355  00000+0 -10236-2 0  9992
2 47260  87.8858  51.4034 0001858  81.4417 278.6922 13.12442891224626
ONEWEB-0111             
1 47261U 20100D   25227.48862581  .00000215  00000+0  56228-3 0  9996
2 47261  87.8862  51.4134 0001725  89.1380 270.9947 13.12443919224466
ONEWEB-0114             
1 47262U 20100E   25227.51944372  .00000113  00000+0  27750-3 0  9995
2 47262  87.8846  51.4031 0001441  94.0939 266.0354 13.12440650224428
ONEWEB-0117             
1 47263U 20100F   25227.51134074  .00000351  00000+0  93912-3 0  9993
2 47263  87.8861  51.4004 0001791  88.4299 271.7035 13.12441251224438
ONEWEB-0118             
1 47264U 20100G   25227.46753679 -.00000403  00000+0 -11544-2 0  9996
2 47264  87.8858  51.4092 0001627 101.6265 258.5046 13.12443745224627
ONEWEB-0119             
1 47265U 20100H   25227.49512865  .00000395  00000+0  10618-2 0  9999
2 47265  87.8853  51.4424 0001727  87.7940 272.3386 13.12442428224603
ONEWEB-0120             
1 47266U 20100J   25227.51796357  .00000092  00000+0  21952-3 0  9991
2 47266  87.8865  51.4365 0001614  90.4268 269.7045 13.12440343224639
ONEWEB-0121             
1 47267U 20100K   25227.50648558  .00000498  00000+0  13494-2 0  9991
2 47267  87.8857  51.4073 0001802  86.6536 273.4798 13.12443379224540
ONEWEB-0122             
1 47268U 20100L   25227.50147333  .00000477  00000+0  12891-2 0  9994
2 47268  87.8851  51.4113 0001672  84.8578 275.2741 13.12442401224454
ONEWEB-0123             
1 47269U 20100M   25227.49673453  .00000374  00000+0  10051-2 0  9992
2 47269  87.8852  51.4403 0001779  93.4515 266.6817 13.12448270224596
ONEWEB-0124             
1 47270U 20100N   25227.48538487  .00000187  00000+0  48380-3 0  9999
2 47270  87.8863  51.4431 0001948  87.9116 272.2236 13.12443980224472
ONEWEB-0125             
1 47271U 20100P   25227.46266514 -.00000405  00000+0 -11604-2 0  9990
2 47271  87.8861  51.4107 0001979  95.6387 264.4968 13.12441770224538
ONEWEB-0126             
1 47272U 20100Q   25227.48389882  .00000036  00000+0  63648-4 0  9992
2 47272  87.8871  51.4257 0001652  90.0297 270.1020 13.12444740224604
ONEWEB-0127             
1 47273U 20100R   25227.52592849 -.00000144  00000+0 -43651-3 0  9990
2 47273  87.8863  51.4315 0001618  87.9651 272.1663 13.12440802224635
ONEWEB-0128             
1 47274U 20100S   25227.47239870 -.00000461  00000+0 -13155-2 0  9994
2 47274  87.8856  51.4682 0001722  81.3036 278.8287 13.12443124224642
ONEWEB-0129             
1 47275U 20100T   25227.52755146 -.00000157  00000+0 -47164-3 0  9990
2 47275  87.8863  51.4003 0000579 101.5121 258.6072 13.12440870224583
ONEWEB-0130             
1 47276U 20100U   25227.47889520 -.00000117  00000+0 -36061-3 0  9999
2 47276  87.8855  51.4083 0001701  85.7134 274.4188 13.12442964224544
ONEWEB-0131             
1 47277U 20100V   25227.47565324 -.00000241  00000+0 -70516-3 0  9994
2 47277  87.8862  51.4374 0001778  86.0951 274.0380 13.12443341224585
ONEWEB-0132             
1 47278U 20100W   25227.50485519  .00000446  00000+0  12045-2 0  9993
2 47278  87.8861  51.4337 0001973  89.2269 270.9086 13.12441822224487
ONEWEB-0133             
1 47279U 20100X   25227.52092579  .00000038  00000+0  71470-4 0  9992
2 47279  87.8849  51.4036 0001810  84.0656 276.0679 13.12440628224649
ONEWEB-0134             
1 47280U 20100Y   25227.49025388  .00000315  00000+0  84003-3 0  9997
2 47280  87.8855  51.3939 0001645  81.0900 279.0414 13.12443469224617
ONEWEB-0135             
1 47281U 20100Z   25227.46104377 -.00000442  00000+0 -12641-2 0  9992
2 47281  87.8860  51.4394 0001696  74.1473 285.9843 13.12443956224639
ONEWEB-0136             
1 47282U 20100AA  25227.48051341  .00000005  00000+0 -21326-4 0  9993
2 47282  87.8862  51.4039 0001452  76.7289 283.4002 13.12444451224564
ONEWEB-0137             
1 47283U 20100AB  25227.51458356  .00000224  00000+0  58659-3 0  9995
2 47283  87.8860  51.4031 0001685  95.3285 264.8036 13.12441017224471
ONEWEB-0138             
1 47284U 20100AC  25227.49349360  .00000407  00000+0  10964-2 0  9996
2 47284  87.8860  51.4175 0001654  86.9665 273.1653 13.12444133224554
ONEWEB-0139             
1 47285U 20100AD  25227.45633432 -.00000389  00000+0 -11173-2 0  9993
2 47285  87.8854  51.4176 0001751  89.0595 271.0734 13.12441681224623
ONEWEB-0140             
1 47286U 20100AE  25227.48700456  .00000203  00000+0  52843-3 0  9991
2 47286  87.8854  51.3953 0001663  86.8074 273.3245 13.12443896224593
ONEWEB-0141             
1 47287U 20100AF  25227.45604766 -.00000413  00000+0 -11821-2 0  9991
2 47287  87.8847  51.4183 0001699  99.9364 260.1956 13.12443052224573
ONEWEB-0142             
1 47288U 20100AG  25227.52120763  .00000034  00000+0  58791-4 0  9996
2 47288  87.8866  51.4172 0001474 100.5891 259.5404 13.12442694224579
ONEWEB-0143             
1 47289U 20100AH  25227.45456095 -.00000396  00000+0 -11368-2 0  9999
2 47289  87.8863  51.4280 0001768  88.5207 271.6124 13.12442700224548
ONEWEB-0144             
1 47290U 20100AJ  25227.50323247  .00000450  00000+0  12151-2 0  9999
2 47290  87.8854  51.3961 0001468  90.8993 269.2304 13.12443106224476
ONEWEB-0145             
1 47291U 20100AK  25227.47402082 -.00000258  00000+0 -75283-3 0  9995
2 47291  87.8864  51.4308 0001680  88.7459 271.3861 13.12444108224669
ONEWEB-0146             
1 47292U 20100AL  25227.47077719 -.00000486  00000+0 -13851-2 0  9996
2 47292  87.8863  51.4181 0002096  87.0441 273.0928 13.12443074224577
ONEWEB-0147             
1 47293U 20100AM  25227.51296365  .00000297  00000+0  79128-3 0  9990
2 47293  87.8861  51.3881 0001629  80.0741 280.0572 13.12440560224478
XJY-7                   
1 47298U 20102C   25227.58132777  .00118911  00000+0  11285-2 0  9992
2 47298  97.3753 335.0101 0004220 164.9497 195.1889 15.66511478259255
YAOGAN-33 01            
1 47302U 20103A   25227.59580061  .00000385  00000+0  91518-4 0  9997
2 47302  98.0794 113.1933 0001667   6.4267 353.6953 14.58994870246754
WEINA 2                 
1 47303U 20103B   25227.58148246  .00000925  00000+0  18495-3 0  9994
2 47303  98.0868 117.6534 0003722  83.2781 276.8845 14.64118561246995
TURKSAT 5A              
1 47306U 21001A   25227.54361714  .00000152  00000+0  00000+0 0  9999
2 47306   0.0243  93.3891 0000202 129.4156 328.0032  1.00271234 16900
TIANTONG-1 3            
1 47321U 21003A   25227.55367052 -.00000155  00000+0  00000+0 0  9994
2 47321   2.1162 323.5596 0002865 241.4648  40.0197  1.00272721 16891
GMS-T                   
1 47346U 21004A   25227.51644575 -.00000007  00000+0 -39059-4 0  9994
2 47346  90.1034 238.3826 0003652 126.9407 233.2060 13.16648661219505
STARLINK-2017           
1 47351U 21005C   25227.30844565  .00001180  00000+0  98066-4 0  9993
2 47351  53.0541 228.0896 0001305  86.2767 273.8371 15.06402063252490
STARLINK-2034           
1 47352U 21005D   25227.39416912 -.00001202  00000+0 -61787-4 0  9991
2 47352  53.0545 267.7158 0001308  86.8574 273.2564 15.06404434252606
STARLINK-2045           
1 47353U 21005E   25227.34948184  .00001112  00000+0  93516-4 0  9991
2 47353  53.0534 212.9139 0001386  90.7543 269.3605 15.06398906252712
STARLINK-2046           
1 47354U 21005F   25227.41404267  .00000427  00000+0  47568-4 0  9993
2 47354  53.0540 233.1677 0001148  95.6300 264.4820 15.06390257252438
STARLINK-2047           
1 47355U 21005G   25227.38402888  .00000880  00000+0  77976-4 0  9996
2 47355  53.0539 217.7624 0001426  90.7302 269.3850 15.06406782252645
STARLINK-2049           
1 47356U 21005H   25227.29741234  .00000140  00000+0  28265-4 0  9994
2 47356  53.0544 238.1509 0001325 111.8392 248.2738 15.06396736252359
STARLINK-2050           
1 47357U 21005J   25227.41263614  .00003070  00000+0  22481-3 0  9998
2 47357  53.0541 268.0593 0001195  94.2459 265.8667 15.06409161252897
STARLINK-2055           
1 47358U 21005K   25227.44021850  .00001192  00000+0  98906-4 0  9995
2 47358  53.0540 237.4991 0001267  81.6285 278.4848 15.06402305252373
STARLINK-2069           
1 47359U 21005L   25227.23265453  .00050810  00000+0  95779-3 0  9997
2 47359  53.0221 205.5688 0003870  69.4194 290.7227 15.48012891252803
STARLINK-2071           
1 47361U 21005N   25227.44855436 -.00000171  00000+0  74170-5 0  9999
2 47361  53.0532 237.4734 0001226  85.5710 274.5419 15.06388975252371
STARLINK-2076           
1 47362U 21005P   25227.42734980  .00000329  00000+0  40994-4 0  9998
2 47362  53.0547 267.5661 0001257  84.7983 275.3149 15.06397722251950
